GLOBALSTAR M024         
1 25883U 99043A   25012.45479812 -.00000032  00000+0  11510-2 0  9996
2 25883  52.0054  12.0084 0001472 195.2021 335.2418 11.10166182 97563
GLOBALSTAR M027         
1 25884U 99043B   25012.54310185 -.00000021  00000+0  16166-2 0  9994
2 25884  52.0217  85.3812 0021840 101.3434 258.9814 11.04370499124040
GLOBALSTAR M054         
1 25885U 99043C   25012.54530295  .00000011  00000+0  20913-2 0  9994
2 25885  52.0110 238.7990 0004696 276.3247  88.5735 11.39215781101649
GLOBALSTAR M053         
1 25886U 99043D   25012.59912479 -.00000064  00000+0  13547-3 0  9993
2 25886  51.9948 177.1284 0003942 156.9696 281.1868 11.27662550101895
GLOBALSTAR M058         
1 25907U 99049A   25012.57937310 -.00000081  00000+0  49171-4 0  9994
2 25907  51.9914 164.6870 0001480  19.6167 340.4725 11.93192070522961
GLOBALSTAR M050         
1 25908U 99049B   25012.59266501 -.00000139  00000+0 -57003-3 0  9991
2 25908  51.9960 183.9514 0010353  83.6675   6.7244 12.07447236129397
GLOBALSTAR M055         
1 25910U 99049D   25012.48468372 -.00000079  00000+0  13253-3 0  9993
2 25910  52.0025  85.1622 0007607 165.6230 194.4839 12.29418753149138
